{
  "type": "FeatureCollection",
  "features": [
    {
      "type": "Feature",
      "properties": {
        "norad_id": 31630,
        "name": "FENGYUN 1C DEB",
        "group": "fengyun-1c-debris",
        "lat": -45.557190332098436,
        "lon": 161.61505223350372,
        "alt_km": 473.7014437344096,
        "timestamp": "2025-12-11T18:59:46.357068+00:00",
        "meta_object_name": "FENGYUN 1C DEB",
        "meta_object_id": "1999-025CAL",
        "meta_epoch": "2025-12-11T04:50:43.743552",
        "meta_mean_motion": 15.06197917,
        "meta_eccentricity": 0.01656755,
        "meta_inclination": 98.0916,
        "meta_ra_of_asc_node": 152.655,
        "meta_arg_of_pericenter": 1.8222,
        "meta_mean_anomaly": 358.3571,
        "meta_ephemeris_type": 0,
        "meta_classification_type": "U",
        "meta_norad_cat_id": 31630,
        "meta_element_set_no": 999,
        "meta_rev_at_epoch": 98567,
        "meta_bstar": 0.0012017161,
        "meta_mean_motion_dot": 0.00024062,
        "meta_mean_motion_ddot": 0,
        "tle_line1": "1 31630U 99025CAL 25345.20189518  .00024062  00000+0  12017-2 0  9997",
        "tle_line2": "2 31630  98.0916 152.6550 0165675   1.8222 358.3571 15.06197917985670"
      },
      "geometry": {
        "type": "Point",
        "coordinates": [
          161.61505223350372,
          -45.557190332098436
        ]
      }
    },
    {
      "type": "Feature",
      "properties": {
        "norad_id": 31631,
        "name": "FENGYUN 1C DEB",
        "group": "fengyun-1c-debris",
        "lat": 75.6733407294959,
        "lon": -143.68841719083576,
        "alt_km": 660.1099734756854,
        "timestamp": "2025-12-11T18:59:46.357080+00:00",
        "meta_object_name": "FENGYUN 1C DEB",
        "meta_object_id": "1999-025CAM",
        "meta_epoch": "2025-12-07T23:13:02.970336",
        "meta_mean_motion": 14.70690476,
        "meta_eccentricity": 0.00637569,
        "meta_inclination": 99.3452,
        "meta_ra_of_asc_node": 252.0808,
        "meta_arg_of_pericenter": 347.5014,
        "meta_mean_anomaly": 12.4604,
        "meta_ephemeris_type": 0,
        "meta_classification_type": "U",
        "meta_norad_cat_id": 31631,
        "meta_element_set_no": 999,
        "meta_rev_at_epoch": 63902,
        "meta_bstar": 0.010414575,
        "meta_mean_motion_dot": 0.00066015,
        "meta_mean_motion_ddot": 0,
        "tle_line1": "1 31631U 99025CAM 25341.96739549  .00066015  00000+0  10415-1 0  9995",
        "tle_line2": "2 31631  99.3452 252.0808 0063756 347.5014  12.4604 14.70690476639025"
      },
      "geometry": {
        "type": "Point",
        "coordinates": [
          -143.68841719083576,
          75.6733407294959
        ]
      }
    },
    {
      "type": "Feature",
      "properties": {
        "norad_id": 31633,
        "name": "FENGYUN 1C DEB",
        "group": "fengyun-1c-debris",
        "lat": 21.548629475048088,
        "lon": -176.47915310293226,
        "alt_km": 825.9649928744766,
        "timestamp": "2025-12-11T18:59:46.357091+00:00",
        "meta_object_name": "FENGYUN 1C DEB",
        "meta_object_id": "1999-025CAP",
        "meta_epoch": "2025-11-15T20:43:47.485920",
        "meta_mean_motion": 14.06334417,
        "meta_eccentricity": 0.00656916,
        "meta_inclination": 98.7152,
        "meta_ra_of_asc_node": 335.0833,
        "meta_arg_of_pericenter": 248.7649,
        "meta_mean_anomaly": 110.6494,
        "meta_ephemeris_type": 0,
        "meta_classification_type": "U",
        "meta_norad_cat_id": 31633,
        "meta_element_set_no": 999,
        "meta_rev_at_epoch": 56706,
        "meta_bstar": 0.0011592605,
        "meta_mean_motion_dot": 1.907e-05,
        "meta_mean_motion_ddot": 0,
        "tle_line1": "1 31633U 99025CAP 25319.86374405  .00001907  00000+0  11593-2 0  9995",
        "tle_line2": "2 31633  98.7152 335.0833 0065691 248.7649 110.6494 14.06334417567064"
      },
      "geometry": {
        "type": "Point",
        "coordinates": [
          -176.47915310293226,
          21.548629475048088
        ]
      }
    },
    {
      "type": "Feature",
      "properties": {
        "norad_id": 31634,
        "name": "FENGYUN 1C DEB",
        "group": "fengyun-1c-debris",
        "lat": 80.62352899969005,
        "lon": -59.04953966734448,
        "alt_km": 881.4608471193615,
        "timestamp": "2025-12-11T18:59:46.357103+00:00",
        "meta_object_name": "FENGYUN 1C DEB",
        "meta_object_id": "1999-025CAQ",
        "meta_epoch": "2025-12-02T09:00:27.072576",
        "meta_mean_motion": 13.94657889,
        "meta_eccentricity": 0.00916924,
        "meta_inclination": 99.3683,
        "meta_ra_of_asc_node": 22.7184,
        "meta_arg_of_pericenter": 185.6903,
        "meta_mean_anomaly": 174.3223,
        "meta_ephemeris_type": 0,
        "meta_classification_type": "U",
        "meta_norad_cat_id": 31634,
        "meta_element_set_no": 999,
        "meta_rev_at_epoch": 56379,
        "meta_bstar": 0.00031553586,
        "meta_mean_motion_dot": 3.91e-06,
        "meta_mean_motion_ddot": 0,
        "tle_line1": "1 31634U 99025CAQ 25336.37531334  .00000391  00000+0  31554-3 0  9993",
        "tle_line2": "2 31634  99.3683  22.7184 0091692 185.6903 174.3223 13.94657889563792"
      },
      "geometry": {
        "type": "Point",
        "coordinates": [
          -59.04953966734448,
          80.62352899969005
        ]
      }
    },
    {
      "type": "Feature",
      "properties": {
        "norad_id": 31639,
        "name": "FENGYUN 1C DEB",
        "group": "fengyun-1c-debris",
        "lat": -3.7786878661679784,
        "lon": -67.62371956117181,
        "alt_km": 1052.541896158631,
        "timestamp": "2025-12-11T18:59:46.357113+00:00",
        "meta_object_name": "FENGYUN 1C DEB",
        "meta_object_id": "1999-025CAV",
        "meta_epoch": "2025-12-11T01:58:07.253760",
        "meta_mean_motion": 13.85162426,
        "meta_eccentricity": 0.01616172,
        "meta_inclination": 98.7432,
        "meta_ra_of_asc_node": 291.1322,
        "meta_arg_of_pericenter": 149.6829,
        "meta_mean_anomaly": 271.5467,
        "meta_ephemeris_type": 0,
        "meta_classification_type": "U",
        "meta_norad_cat_id": 31639,
        "meta_element_set_no": 999,
        "meta_rev_at_epoch": 93665,
        "meta_bstar": 0.00016590379,
        "meta_mean_motion_dot": 1.69e-06,
        "meta_mean_motion_ddot": 0,
        "tle_line1": "1 31639U 99025CAV 25345.08202840  .00000169  00000+0  16590-3 0  9999",
        "tle_line2": "2 31639  98.7432 291.1322 0161617 149.6829 271.5467 13.85162426936657"
      },
      "geometry": {
        "type": "Point",
        "coordinates": [
          -67.62371956117181,
          -3.7786878661679784
        ]
      }
    },
    {
      "type": "Feature",
      "properties": {
        "norad_id": 31642,
        "name": "FENGYUN 1C DEB",
        "group": "fengyun-1c-debris",
        "lat": 15.300507412731166,
        "lon": 65.66010344941047,
        "alt_km": 818.0576792598222,
        "timestamp": "2025-12-11T18:59:46.357123+00:00",
        "meta_object_name": "FENGYUN 1C DEB",
        "meta_object_id": "1999-025CAY",
        "meta_epoch": "2025-12-10T04:23:29.491008",
        "meta_mean_motion": 14.3339208,
        "meta_eccentricity": 0.01190506,
        "meta_inclination": 98.5047,
        "meta_ra_of_asc_node": 66.4257,
        "meta_arg_of_pericenter": 264.0757,
        "meta_mean_anomaly": 94.6849,
        "meta_ephemeris_type": 0,
        "meta_classification_type": "U",
        "meta_norad_cat_id": 31642,
        "meta_element_set_no": 999,
        "meta_rev_at_epoch": 96982,
        "meta_bstar": 0.00054505529,
        "meta_mean_motion_dot": 1.581e-05,
        "meta_mean_motion_ddot": 0,
        "tle_line1": "1 31642U 99025CAY 25344.18298022  .00001581  00000+0  54506-3 0  9998",
        "tle_line2": "2 31642  98.5047  66.4257 0119050 264.0757  94.6849 14.33392080969825"
      },
      "geometry": {
        "type": "Point",
        "coordinates": [
          65.66010344941047,
          15.300507412731166
        ]
      }
    },
    {
      "type": "Feature",
      "properties": {
        "norad_id": 31644,
        "name": "FENGYUN 1C DEB",
        "group": "fengyun-1c-debris",
        "lat": -17.783423676605018,
        "lon": 52.77593088734068,
        "alt_km": 566.3683393089614,
        "timestamp": "2025-12-11T18:59:46.357133+00:00",
        "meta_object_name": "FENGYUN 1C DEB",
        "meta_object_id": "1999-025CBA",
        "meta_epoch": "2025-12-10T22:32:03.920064",
        "meta_mean_motion": 14.67869314,
        "meta_eccentricity": 0.0154179,
        "meta_inclination": 98.6705,
        "meta_ra_of_asc_node": 234.6786,
        "meta_arg_of_pericenter": 188.798,
        "meta_mean_anomaly": 186.0737,
        "meta_ephemeris_type": 0,
        "meta_classification_type": "U",
        "meta_norad_cat_id": 31644,
        "meta_element_set_no": 999,
        "meta_rev_at_epoch": 71018,
        "meta_bstar": 0.001296,
        "meta_mean_motion_dot": 8.812e-05,
        "meta_mean_motion_ddot": 0,
        "tle_line1": "1 31644U 99025CBA 25344.93893426  .00008812  00000+0  12960-2 0  9993",
        "tle_line2": "2 31644  98.6705 234.6786 0154179 188.7980 186.0737 14.67869314710187"
      },
      "geometry": {
        "type": "Point",
        "coordinates": [
          52.77593088734068,
          -17.783423676605018
        ]
      }
    }
  ]
}